{"type": "FeatureCollection", "features": [ {"type": "Feature", "properties": {"norad_id": 39122, "name": "EUTELSAT 117 WEST A", "group": "eutelsat", "lat": 0.02903253307324951, "lon": 17.548365111901745, "alt_km": 35793.60796965548, "timestamp": "2025-12-07T03:52:32.142293+00:00", "meta": {"OBJECT_NAME": "EUTELSAT 117 WEST A", "OBJECT_ID": "2013-012A", "EPOCH": "2025-12-06T11:23:55.104576", "MEAN_MOTION": 1.00269906, "ECCENTRICITY": 0.00031615, "INCLINATION": 0.0156, "RA_OF_ASC_NODE": 325.4379, "ARG_OF_PERICENTER": 290.4189, "MEAN_ANOMALY": 233.8432, "EPHEMERIS_TYPE": 0, "CLASSIFICATION_TYPE": "U", "NORAD_CAT_ID": 39122, "ELEMENT_SET_NO": 999, "REV_AT_EPOCH": 4650, "BSTAR": 0, "MEAN_MOTION_DOT": -6e-08, "MEAN_MOTION_DDOT": 0}, "tle": {"line1": "1 39122U 13012A   25340.47494334 -.00000006  00000+0  00000+0 0  9991", "line2": "2 39122   0.0156 325.4379 0003161 290.4189 233.8432  1.00269906 46501"}}, "geometry": {"type": "Point", "coordinates": [17.548365111901745, 0.02903253307324951]}}, {"type": "Feature", "properties": {"norad_id": 39163, "name": "EUTELSAT 7B", "group": "eutelsat", "lat": 0.05812437718459739, "lon": 141.29204078925798, "alt_km": 35804.82933233565, "timestamp": "2025-12-07T03:52:32.142305+00:00", "meta": {"OBJECT_NAME": "EUTELSAT 7B", "OBJECT_ID": "2013-022A", "EPOCH": "2025-12-06T10:19:38.595648", "MEAN_MOTION": 1.00270399, "ECCENTRICITY": 0.00044364, "INCLINATION": 0.0687, "RA_OF_ASC_NODE": 7.6714, "ARG_OF_PERICENTER": 304.484, "MEAN_ANOMALY": 285.2134, "EPHEMERIS_TYPE": 0, "CLASSIFICATION_TYPE": "U", "NORAD_CAT_ID": 39163, "ELEMENT_SET_NO": 999, "REV_AT_EPOCH": 4602, "BSTAR": 0, "MEAN_MOTION_DOT": 5.5e-07, "MEAN_MOTION_DDOT": 0}, "tle": {"line1": "1 39163U 13022A   25340.43030782  .00000055  00000+0  00000+0 0  9999", "line2": "2 39163   0.0687   7.6714 0004436 304.4840 285.2134  1.00270399 46028"}}, "geometry": {"type": "Point", "coordinates": [141.29204078925798, 0.05812437718459739]}}, {"type": "Feature", "properties": {"norad_id": 39612, "name": "EXPRESS-AT1", "group": "eutelsat", "lat": -0.029083762727895916, "lon": -169.68398809291702, "alt_km": 35783.73072415053, "timestamp": "2025-12-07T03:52:32.142318+00:00", "meta": {"OBJECT_NAME": "EXPRESS-AT1", "OBJECT_ID": "2014-010A", "EPOCH": "2025-12-06T12:13:12.884160", "MEAN_MOTION": 1.00271588, "ECCENTRICITY": 5.692e-05, "INCLINATION": 0.0167, "RA_OF_ASC_NODE": 303.0576, "ARG_OF_PERICENTER": 237.1051, "MEAN_ANOMALY": 134.6883, "EPHEMERIS_TYPE": 0, "CLASSIFICATION_TYPE": "U", "NORAD_CAT_ID": 39612, "ELEMENT_SET_NO": 999, "REV_AT_EPOCH": 4288, "BSTAR": 0, "MEAN_MOTION_DOT": 8.6e-07, "MEAN_MOTION_DDOT": 0}, "tle": {"line1": "1 39612U 14010A   25340.50917690  .00000086  00000+0  00000+0 0  9990", "line2": "2 39612   0.0167 303.0576 0000569 237.1051 134.6883  1.00271588 42887"}}, "geometry": {"type": "Point", "coordinates": [-169.68398809291702, -0.029083762727895916]}}, {"type": "Feature", "properties": {"norad_id": 39613, "name": "EXPRESS-AT2", "group": "eutelsat", "lat": -0.0408072615729493, "lon": -85.83952090307051, "alt_km": 35781.18360986026, "timestamp": "2025-12-07T03:52:32.142330+00:00", "meta": {"OBJECT_NAME": "EXPRESS-AT2", "OBJECT_ID": "2014-010B", "EPOCH": "2025-12-06T10:54:27.925632", "MEAN_MOTION": 1.00269336, "ECCENTRICITY": 0.00013562, "INCLINATION": 0.0189, "RA_OF_ASC_NODE": 349.448, "ARG_OF_PERICENTER": 293.6109, "MEAN_ANOMALY": 95.9052, "EPHEMERIS_TYPE": 0, "CLASSIFICATION_TYPE": "U", "NORAD_CAT_ID": 39613, "ELEMENT_SET_NO": 999, "REV_AT_EPOCH": 4256, "BSTAR": 0, "MEAN_MOTION_DOT": 0, "MEAN_MOTION_DDOT": 0}, "tle": {"line1": "1 39613U 14010B   25340.45448988  .00000000  00000+0  00000+0 0  9990", "line2": "2 39613   0.0189 349.4480 0001356 293.6109  95.9052  1.00269336 42566"}}, "geometry": {"type": "Point", "coordinates": [-85.83952090307051, -0.0408072615729493]}}, {"type": "Feature", "properties": {"norad_id": 39773, "name": "EUTELSAT 3B", "group": "eutelsat", "lat": 0.06156204593982254, "lon": 137.3586556881629, "alt_km": 35787.41786111936, "timestamp": "2025-12-07T03:52:32.142342+00:00", "meta": {"OBJECT_NAME": "EUTELSAT 3B", "OBJECT_ID": "2014-030A", "EPOCH": "2025-12-06T08:32:41.505216", "MEAN_MOTION": 1.00271568, "ECCENTRICITY": 0.00047329, "INCLINATION": 0.0649, "RA_OF_ASC_NODE": 10.0268, "ARG_OF_PERICENTER": 220.9183, "MEAN_ANOMALY": 335.7222, "EPHEMERIS_TYPE": 0, "CLASSIFICATION_TYPE": "U", "NORAD_CAT_ID": 39773, "ELEMENT_SET_NO": 999, "REV_AT_EPOCH": 4213, "BSTAR": 0, "MEAN_MOTION_DOT": 2.7e-07, "MEAN_MOTION_DDOT": 0}, "tle": {"line1": "1 39773U 14030A   25340.35603594  .00000027  00000+0  00000+0 0  9993", "line2": "2 39773   0.0649  10.0268 0004732 220.9183 335.7222  1.00271568 42132"}}, "geometry": {"type": "Point", "coordinates": [137.3586556881629, 0.06156204593982254]}}, {"type": "Feature", "properties": {"norad_id": 40425, "name": "EUTELSAT 115 WEST B", "group": "eutelsat", "lat": -0.012190137290003103, "lon": 19.440834806409708, "alt_km": 35785.25965147379, "timestamp": "2025-12-07T03:52:32.142354+00:00", "meta": {"OBJECT_NAME": "EUTELSAT 115 WEST B", "OBJECT_ID": "2015-010B", "EPOCH": "2025-12-06T10:47:28.419072", "MEAN_MOTION": 1.00271104, "ECCENTRICITY": 3.126e-05, "INCLINATION": 0.007, "RA_OF_ASC_NODE": 143.6476, "ARG_OF_PERICENTER": 276.9333, "MEAN_ANOMALY": 61.9058, "EPHEMERIS_TYPE": 0, "CLASSIFICATION_TYPE": "U", "NORAD_CAT_ID": 40425, "ELEMENT_SET_NO": 999, "REV_AT_EPOCH": 3946, "BSTAR": 0, "MEAN_MOTION_DOT": -1.8e-07, "MEAN_MOTION_DDOT": 0}, "tle": {"line1": "1 40425U 15010B   25340.44963448 -.00000018  00000+0  00000+0 0  9996", "line2": "2 40425   0.0070 143.6476 0000312 276.9333  61.9058  1.00271104 39461"}}, "geometry": {"type": "Point", "coordinates": [19.440834806409708, -0.012190137290003103]}}, {"type": "Feature", "properties": {"norad_id": 40875, "name": "EUTELSAT 8 WEST B", "group": "eutelsat", "lat": 0.06144531005806729, "lon": 126.29154406487467, "alt_km": 35797.60023979683, "timestamp": "2025-12-07T03:52:32.142366+00:00", "meta": {"OBJECT_NAME": "EUTELSAT 8 WEST B", "OBJECT_ID": "2015-039B", "EPOCH": "2025-12-06T10:12:01.990656", "MEAN_MOTION": 1.00271555, "ECCENTRICITY": 0.00041205, "INCLINATION": 0.0646, "RA_OF_ASC_NODE": 353.9756, "ARG_OF_PERICENTER": 263.3818, "MEAN_ANOMALY": 323.1281, "EPHEMERIS_TYPE": 0, "CLASSIFICATION_TYPE": "U", "NORAD_CAT_ID": 40875, "ELEMENT_SET_NO": 999, "REV_AT_EPOCH": 3772, "BSTAR": 0, "MEAN_MOTION_DOT": -5.8e-07, "MEAN_MOTION_DDOT": 0}, "tle": {"line1": "1 40875U 15039B   25340.42502304 -.00000058  00000+0  00000+0 0  9998", "line2": "2 40875   0.0646 353.9756 0004120 263.3818 323.1281  1.00271555 37723"}}, "geometry": {"type": "Point", "coordinates": [126.29154406487467, 0.06144531005806729]}}, {"type": "Feature", "properties": {"norad_id": 41310, "name": "EUTELSAT 9B", "group": "eutelsat", "lat": 0.0718277112521037, "lon": 143.26453508643192, "alt_km": 35797.73766894962, "timestamp": "2025-12-07T03:52:32.142379+00:00", "meta": {"OBJECT_NAME": "EUTELSAT 9B", "OBJECT_ID": "2016-005A", "EPOCH": "2025-12-06T11:59:36.686688", "MEAN_MOTION": 1.00272389, "ECCENTRICITY": 0.00050169, "INCLINATION": 0.074, "RA_OF_ASC_NODE": 75.8204, "ARG_OF_PERICENTER": 191.5718, "MEAN_ANOMALY": 357.0441, "EPHEMERIS_TYPE": 0, "CLASSIFICATION_TYPE": "U", "NORAD_CAT_ID": 41310, "ELEMENT_SET_NO": 999, "REV_AT_EPOCH": 3618, "BSTAR": 0, "MEAN_MOTION_DOT": 6.9e-07, "MEAN_MOTION_DDOT": 0}, "tle": {"line1": "1 41310U 16005A   25340.49973017  .00000069  00000+0  00000+0 0  9998", "line2": "2 41310   0.0740  75.8204 0005016 191.5718 357.0441  1.00272389 36186"}}, "geometry": {"type": "Point", "coordinates": [143.26453508643192, 0.0718277112521037]}}, {"type": "Feature", "properties": {"norad_id": 41382, "name": "EUTELSAT 65 WEST A", "group": "eutelsat", "lat": 0.07195478737647706, "lon": 69.10932951412337, "alt_km": 35798.505950010505, "timestamp": "2025-12-07T03:52:32.142392+00:00", "meta": {"OBJECT_NAME": "EUTELSAT 65 WEST A", "OBJECT_ID": "2016-014A", "EPOCH": "2025-12-06T11:13:07.483008", "MEAN_MOTION": 1.00269627, "ECCENTRICITY": 0.00028754, "INCLINATION": 0.0495, "RA_OF_ASC_NODE": 354.8279, "ARG_OF_PERICENTER": 269.5938, "MEAN_ANOMALY": 274.157, "EPHEMERIS_TYPE": 0, "CLASSIFICATION_TYPE": "U", "NORAD_CAT_ID": 41382, "ELEMENT_SET_NO": 999, "REV_AT_EPOCH": 3560, "BSTAR": 0, "MEAN_MOTION_DOT": -2.69e-06, "MEAN_MOTION_DDOT": 0}, "tle": {"line1": "1 41382U 16014A   25340.46744772 -.00000269  00000+0  00000+0 0  9991", "line2": "2 41382   0.0495 354.8279 0002875 269.5938 274.1570  1.00269627 35603"}}, "geometry": {"type": "Point", "coordinates": [69.10932951412337, 0.07195478737647706]}}, {"type": "Feature", "properties": {"norad_id": 41589, "name": "EUTELSAT 117 WEST B", "group": "eutelsat", "lat": -0.006320252005315465, "lon": 17.31470705471317, "alt_km": 35785.544053591475, "timestamp": "2025-12-07T03:52:32.142404+00:00", "meta": {"OBJECT_NAME": "EUTELSAT 117 WEST B", "OBJECT_ID": "2016-038B", "EPOCH": "2025-12-06T11:23:47.617152", "MEAN_MOTION": 1.00272504, "ECCENTRICITY": 1.795e-05, "INCLINATION": 0.0132, "RA_OF_ASC_NODE": 172.9606, "ARG_OF_PERICENTER": 270.2421, "MEAN_ANOMALY": 46.2587, "EPHEMERIS_TYPE": 0, "CLASSIFICATION_TYPE": "U", "NORAD_CAT_ID": 41589, "ELEMENT_SET_NO": 999, "REV_AT_EPOCH": 3473, "BSTAR": 0, "MEAN_MOTION_DOT": -5e-08, "MEAN_MOTION_DDOT": 0}, "tle": {"line1": "1 41589U 16038B   25340.47485668 -.00000005  00000+0  00000+0 0  9991", "line2": "2 41589   0.0132 172.9606 0000179 270.2421  46.2587  1.00272504 34731"}}, "geometry": {"type": "Point", "coordinates": [17.31470705471317, -0.006320252005315465]}}]}